[{"OBJECT_NAME":"STARLINK-34497","OBJECT_ID":"2025-142A","EPOCH":"2026-03-09T23:15:11.045376","MEAN_MOTION":14.98336499,"ECCENTRICITY":0.00025502,"INCLINATION":70.0014,"RA_OF_ASC_NODE":313.7157,"ARG_OF_PERICENTER":269.4285,"MEAN_ANOMALY":90.6582,"EPHEMERIS_TYPE":0,"CLASSIFICATION_TYPE":"U","NORAD_CAT_ID":64696,"ELEMENT_SET_NO":999,"REV_AT_EPOCH":3968,"BSTAR":0.0007243704,"MEAN_MOTION_DOT":8.562e-5,"MEAN_MOTION_DDOT":0},{"OBJECT_NAME":"TIANPING 3B-01","OBJECT_ID":"2024-189B","EPOCH":"2026-03-09T23:37:36.067008","MEAN_MOTION":15.0098675,"ECCENTRICITY":0.00018984,"INCLINATION":97.5338,"RA_OF_ASC_NODE":92.2159,"ARG_OF_PERICENTER":36.3384,"MEAN_ANOMALY":323.7969,"EPHEMERIS_TYPE":0,"CLASSIFICATION_TYPE":"U","NORAD_CAT_ID":61615,"ELEMENT_SET_NO":999,"REV_AT_EPOCH":7556,"BSTAR":0.00029959959,"MEAN_MOTION_DOT":3.765e-5,"MEAN_MOTION_DDOT":0}]
